[Satellite]
VERSION=1.1
NAME=ZACUBE-2
NICKNAME=ZACUBE-2
TLE1=1 43907U 18111AH  19317.84405962  .00000573  00000-0  26169-4 0  9997
TLE2=2 43907  97.2786 218.9135 0021396 184.0920 176.0146 15.24338022 49017
STATUS=0
